{
  "norad_id": 68452,
  "name": "TRANSPORTER-16 OBJECT AN",
  "history": [
    {
      "epoch": "2026-04-14T03:25:50.934432Z",
      "apogee_km": 515.5812917120447,
      "perigee_km": 512.5928233606965,
      "latitude_deg": -8.040533485274468e-05,
      "longitude_deg": 169.771271643143,
      "height_km": 516.252017587756,
      "semi_major_axis_km": 6892.22405753637,
      "eccentricity": 0.0002168,
      "inclination_deg": 97.4498,
      "raan_deg": 63.5571,
      "arg_perigee_deg": 308.1266,
      "mean_anomaly_deg": 51.9771,
      "mean_motion_rev_day": 15.1727283
    }
  ]
}