{"fetched_at":"2026-04-16T06:04:01Z","count":5425,"tles":[{"name":"TRANSPORTER-16 OBJECT AN","line1":"1 68452U 26067AN  26104.14295063  .00004337  00000+0  22115-3 0  9999","line2":"2 68452  97.4498  63.5571 0002168 308.1266  51.9771 15.17272830  2220","category":"Other"}]}